CSS (TIANHE)            
1 48274U 21035A   24171.85095374  .00033573  00000+0  37322-3 0  9992
2 48274  41.4687  66.8778 0004558 250.5806 109.4541 15.62174204179516
